IRIDIUM 126             
1 42809U 17039G   24077.20572536  .00000143  00000+0  43838-4 0  9990
2 42809  86.4013 337.1680 0001918  91.5762 268.5653 14.34216555352140
IRIDIUM 124             
1 42810U 17039H   24077.13528391  .00000165  00000+0  43056-4 0  9990
2 42810  86.4433 273.9159 0002283  89.0132 271.1330 14.43276741356548
IRIDIUM 128             
1 42811U 17039J   24076.84762380  .00000154  00000+0  47886-4 0  9999
2 42811  86.4025   8.8131 0002336  89.4953 270.6511 14.34217934352118
IRIDIUM 121             
1 42812U 17039K   24076.80614470  .00000116  00000+0  34194-4 0  9998
2 42812  86.4013 337.3570 0002109  87.2193 272.9244 14.34217417351958
IRIDIUM 133             
1 42955U 17061A   24076.87933684  .00000215  00000+0  69665-4 0  9990
2 42955  86.4029   8.8971 0002148  85.3926 274.7515 14.34217447336917
IRIDIUM 100             
1 42956U 17061B   24077.29160503  .00000393  00000+0  13338-3 0  9992
2 42956  86.4026   8.6630 0002189  88.5343 271.6103 14.34216842336993
IRIDIUM 122             
1 42957U 17061C   24077.32965911  .00000151  00000+0  46831-4 0  9990
2 42957  86.4026   8.6453 0002272  91.1860 268.9596 14.34216717336989
IRIDIUM 129             
1 42958U 17061D   24077.35503181  .00000112  00000+0  32936-4 0  9999
2 42958  86.4028   8.6929 0002170  89.9481 270.1964 14.34217377337002
